STARLINK-32231          
1 60439U 24144Q   26068.70006477  .00000377  00000+0  24864-4 0  9994
2 60439  53.1596 216.8753 0000963  73.0782 287.0325 15.30190952 88413
2025-313BD              
1 67299U 25313BD  26068.62968741  .00081010  00000+0  27634-2 0  9995
2 67299  97.3970 145.2850 0007287 333.4514  26.6352 15.30002360 10838
