[{"OBJECT_NAME":"STARLINK-32231","OBJECT_ID":"2024-144Q","EPOCH":"2026-03-09T16:48:05.596128","MEAN_MOTION":15.30190952,"ECCENTRICITY":9.629e-5,"INCLINATION":53.1596,"RA_OF_ASC_NODE":216.8753,"ARG_OF_PERICENTER":73.0782,"MEAN_ANOMALY":287.0325,"EPHEMERIS_TYPE":0,"CLASSIFICATION_TYPE":"U","NORAD_CAT_ID":60439,"ELEMENT_SET_NO":999,"REV_AT_EPOCH":8841,"BSTAR":2.4864362e-5,"MEAN_MOTION_DOT":3.77e-6,"MEAN_MOTION_DDOT":0},{"OBJECT_NAME":"OBJECT BD","OBJECT_ID":"2025-313BD","EPOCH":"2026-03-09T15:06:44.992224","MEAN_MOTION":15.3000236,"ECCENTRICITY":0.00072867,"INCLINATION":97.397,"RA_OF_ASC_NODE":145.285,"ARG_OF_PERICENTER":333.4514,"MEAN_ANOMALY":26.6352,"EPHEMERIS_TYPE":0,"CLASSIFICATION_TYPE":"U","NORAD_CAT_ID":67299,"ELEMENT_SET_NO":999,"REV_AT_EPOCH":1083,"BSTAR":0.0027633805,"MEAN_MOTION_DOT":0.0008101,"MEAN_MOTION_DDOT":0}]
